OBJECT_NAME,OBJECT_ID,EPOCH,MEAN_MOTION,ECCENTRICITY,INCLINATION,RA_OF_ASC_NODE,ARG_OF_PERICENTER,MEAN_ANOMALY,EPHEMERIS_TYPE,CLASSIFICATION_TYPE,NORAD_CAT_ID,ELEMENT_SET_NO,REV_AT_EPOCH,BSTAR,MEAN_MOTION_DOT,MEAN_MOTION_DDOT
COSMOS 2534 (758),2019-030A,2026-07-16T15:35:19.703040,2.13102191,.0013502,64.3705,191.6243,275.0108,146.6615,0,U,44299,999,5555,0,.52E-6,0
BEIDOU-3 IGSO-2 (C39),2019-035A,2026-07-19T11:31:39.532224,1.00256316,.00392529,55.2515,158.5787,216.3140,213.5484,0,U,44337,999,2599,0,-.113E-5,0
GPS BIII-2  (PRN 18),2019-056A,2026-07-19T11:26:10.832064,2.00570295,.00636169,55.6197,329.8590,198.2329,104.3583,0,U,44506,999,5071,0,-.106E-5,0
BEIDOU-3 M24 (C46),2019-061A,2026-07-18T22:08:41.584128,1.86229160,.000866,54.3974,181.6576,359.8499,0.1236,0,U,44542,999,4638,0,.63E-6,0
BEIDOU-3 M23 (C45),2019-061B,2026-07-19T07:49:10.473888,1.86227503,.00059883,54.3960,181.6120,341.4522,200.1807,0,U,44543,999,4639,0,.67E-6,0
EUTELSAT 5 WEST B (EGNOS/PRN 121),2019-067A,2026-07-19T08:01:16.812768,1.00271304,.00031257,0.0774,321.1509,156.5233,294.7572,0,U,44624,999,2475,0,-.47E-6,0
BEIDOU-3 M22 (C44),2019-078A,2026-07-13T09:26:32.496288,1.86227300,.00057504,53.9106,298.9058,50.3045,309.7753,0,U,44793,999,4513,0,-.62E-6,0
BEIDOU-3 M21 (C43),2019-078B,2026-07-18T21:40:11.704800,1.86227565,.00035722,53.8780,298.6712,50.0819,309.9888,0,U,44794,999,4524,0,-.91E-6,0
COSMOS 2544 (759),2019-088A,2026-07-18T11:16:33.807936,2.13102896,.00120694,65.5825,72.6872,253.1626,106.7768,0,U,44850,999,5138,0,-.34E-6,0
BEIDOU-3 M19 (C41),2019-090A,2026-07-19T07:19:46.002720,1.86231477,.00166077,56.5872,61.7289,297.5472,169.9419,0,U,44864,999,4483,0,-.73E-6,0
BEIDOU-3 M20 (C42),2019-090B,2026-07-18T05:58:35.347872,1.86231410,.00142806,56.5878,61.7982,312.4225,256.4049,0,U,44865,999,4479,0,-.64E-6,0
BEIDOU-3 G2 (C60),2020-017A,2026-07-19T13:33:24.576192,1.00272464,.00018327,2.9289,47.8051,58.0965,114.8207,0,U,45344,999,2358,0,-.146E-5,0
COSMOS 2545 (760),2020-018A,2026-07-19T14:28:44.173056,2.13102333,.00097261,64.3337,311.2795,229.7423,130.1960,0,U,45358,999,4935,0,-.8E-6,0
BEIDOU-3 G3 (C61),2020-040A,2026-07-18T17:10:20.673120,1.00274773,.00022277,2.5232,67.4992,309.4166,287.6963,0,U,45807,999,2238,0,-.361E-5,0
GPS BIII-3  (PRN 23),2020-041A,2026-07-19T15:00:01.620000,2.00557943,.00654278,56.6915,27.6853,204.6784,142.1000,0,U,45854,999,4468,0,-.88E-6,0
GALAXY 30 (WAAS/PRN 135),2020-056C,2026-07-19T12:34:57.855936,1.00273013,.00022475,0.0186,56.1267,62.9342,241.9916,0,U,46114,999,2161,0,.32E-6,0
COSMOS 2547 (705K),2020-075A,2026-07-15T13:40:19.372224,2.13099910,.00094588,64.6014,191.5282,239.8249,120.0839,0,U,46805,999,4451,0,.54E-6,0
GPS BIII-4  (PRN 14),2020-078A,2026-07-19T06:47:14.819424,2.00565035,.00746428,53.9767,209.4765,207.9275,229.2387,0,U,46826,999,4215,0,.53E-6,0
GPS BIII-5  (PRN 11),2021-054A,2026-07-19T09:59:38.741568,2.00567030,.00265403,55.1572,331.1637,228.5722,131.4265,0,U,48859,999,3740,0,-.107E-5,0
QZS-1R (QZSS/PRN 196),2021-096A,2026-07-18T13:41:38.923296,1.00244289,.07554403,37.5244,79.1164,272.2947,281.6932,0,U,49336,999,1732,0,-.316E-5,0
GSAT0223 (GALILEO 27),2021-116A,2026-07-19T06:07:31.715616,1.70476276,.00024727,57.1491,340.8090,195.0524,165.6739,0,U,49809,999,2873,0,-.106E-5,0
GSAT0224 (GALILEO 28),2021-116B,2026-07-18T11:48:53.184672,1.70476262,.00018759,57.1493,340.8281,182.1196,183.0012,0,U,49810,999,2874,0,-.105E-5,0
COSMOS 2557 (706K),2022-075A,2026-07-15T17:36:40.979232,2.13102146,.00108557,64.2802,313.4798,271.2186,88.6706,0,U,52984,999,3132,0,-.64E-6,0
COSMOS 2559 (707K),2022-130A,2026-07-19T07:22:56.641728,2.13101739,.00131498,64.2502,313.4360,181.4640,178.5529,0,U,54031,999,2937,0,-.79E-6,0
COSMOS 2564 (761),2022-161A,2026-07-19T03:36:59.798304,2.13102039,.00121934,64.7441,191.6506,224.8358,135.0652,0,U,54377,999,2831,0,.72E-6,0
GPS BIII-6  (PRN 28),2023-009A,2026-07-19T11:51:21.631104,2.00569391,.00051276,55.1242,147.2489,342.6397,112.0717,0,U,55268,999,2589,0,.34E-6,0
BEIDOU-3 G4 (C62),2023-066A,2026-07-19T15:07:38.781408,1.00271397,.00050298,0.4569,340.2148,184.3689,139.8112,0,U,56564,999,1171,0,-.285E-5,0
NVS-01 (IRNSS-1J),2023-076A,2026-07-19T13:47:30.723360,1.00276766,.00030296,2.0912,242.8628,19.1327,11.7007,0,U,56759,999,1144,0,-.339E-5,0
COSMOS 2569 (703K),2023-114A,2026-07-19T03:54:42.469920,2.13103813,.00095297,65.3205,71.5424,295.6205,64.3510,0,U,57517,999,2294,0,-.42E-6,0
BEIDOU-3 M28 (C50),2023-207A,2026-07-17T21:44:31.744608,1.86229739,.00023361,55.7801,61.2668,7.0710,353.0002,0,U,58654,999,1741,0,-.63E-6,0
BEIDOU-3 M26 (C48),2023-207B,2026-07-18T05:46:08.416416,1.86229724,.00018369,55.7828,61.2421,324.6649,35.3897,0,U,58655,999,1740,0,-.66E-6,0
